IRIDIUM 159             
1 43578U 18061K   25365.83155539  .00000052  00000+0  11577-4 0  9994
2 43578  86.3990 126.6923 0001932  95.3130 264.8287 14.34218065389392
IRIDIUM 180             
1 43922U 19002A   25365.69150966  .00000398  00000+0  13498-3 0  9992
2 43922  86.3950  63.6169 0001995  95.8836 264.2587 14.34216373364985
IRIDIUM 176             
1 43923U 19002B   25365.68655196  .00001632  00000+0  25506-3 0  9992
2 43923  86.6088  63.5845 0002518  91.1293 269.0213 14.72236786374600
IRIDIUM 168             
1 43924U 19002C   25365.68517319  .00000053  00000+0  12018-4 0  9998
2 43924  86.3952  63.6921 0002196  97.6141 262.5304 14.34217736364968
IRIDIUM 173             
1 43925U 19002D   25365.60272467  .00000487  00000+0  16695-3 0  9998
2 43925  86.3951  63.6224 0002249 100.0401 260.1049 14.34216878364934
IRIDIUM 169             
1 43926U 19002E   25365.76194579  .00000609  00000+0  19248-3 0  9996
2 43926  86.4226  95.2108 0002887 112.7534 247.3970 14.38604809366153
IRIDIUM 172             
1 43927U 19002F   25365.59637658  .00000056  00000+0  12760-4 0  9997
2 43927  86.3948  63.6323 0002008  96.5427 263.5998 14.34217707364945
IRIDIUM 175             
1 43928U 19002G   25365.47792917  .00001898  00000+0  29686-3 0  9994
2 43928  86.1498   5.0196 0002952  73.7093 286.4449 14.72264245374561
